CUTE-1 (CO-55)          
1 27844U 03031E   22011.49100154  .00000098  00000+0  63773-4 0  9998
2 27844  98.6803  21.5442 0009643 190.7501 169.3472 14.22367922961550
CUBESAT XI-IV (CO-57)   
1 27848U 03031J   22011.47617480  .00000077  00000+0  54611-4 0  9993
2 27848  98.6853  22.0757 0009285 204.9044 155.1686 14.21936784961373
CUBESAT XI-V            
1 28895U 05043F   22011.61397190  .00000309  00000+0  67815-4 0  9998
2 28895  98.0838 145.6759 0015440 275.0902  84.8538 14.64049627864463
CUTE-1.7+APD II (CO-65) 
1 32785U 08021C   22011.40919460  .00000742  00000+0  84502-4 0  9990
2 32785  97.6375 347.5064 0013863  39.4970 320.7255 14.88980544743117
AAUSAT-II               
1 32788U 08021F   22011.46518390  .00001647  00000+0  15109-3 0  9997
2 32788  97.5211   2.6395 0009962 295.8511  64.1683 14.96143950744956
DELFI-C3 (DO-64)        
1 32789U 08021G   22011.35583281  .00004394  00000+0  27114-3 0  9998
2 32789  97.3578  43.6302 0012396 140.7010 219.5122 15.10346102748196
SEEDS II (CO-66)        
1 32791U 08021J   22011.46087061  .00000882  00000+0  92804-4 0  9995
2 32791  97.5942 353.2372 0013059   0.6767 359.4468 14.91779635743789
SWISSCUBE               
1 35932U 09051B   22011.49693426  .00000253  00000+0  67605-4 0  9993
2 35932  98.5838 222.8942 0007771 161.7296 198.4181 14.56654718653247
BEESAT-1                
1 35933U 09051C   22011.45531065  .00000219  00000+0  59892-4 0  9991
2 35933  98.5788 224.5768 0005752 171.7006 188.4287 14.56697812653310
ITUPSAT1                
1 35935U 09051E   22011.51514709  .00000207  00000+0  58358-4 0  9999
2 35935  98.5889 224.7322 0008009 176.7446 183.3804 14.55822170653048
TISAT 1                 
1 36799U 10035E   22011.50156653  .00001163  00000+0  12044-3 0  9994
2 36799  98.1940 215.7051 0010791 249.8831 110.1226 14.92105950624350
M-CUBED & EXP-1 PRIME   
1 37855U 11061F   22011.38184178  .00003934  00000+0  18883-3 0  9992
2 37855 101.7206  48.0564 0162434 171.6789 188.7178 15.09193481557528
AEROCUBE 4.5A           
1 38767U 12048K   22011.36152415  .00001431  00000+0  11469-3 0  9991
2 38767  64.6634 243.6350 0174661 305.4255  53.0653 14.93507483127314
AEROCUBE 4.5B           
1 38768U 12048L   22011.50571536  .00001833  00000+0  13152-3 0  9994
2 38768  64.6635 201.0911 0165025 300.4842  58.0063 14.97614209127632
STRAND-1                
1 39090U 13009E   22011.37324906  .00000318  00000+0  12618-3 0  9996
2 39090  98.4107 213.5135 0009565  25.8847 334.2815 14.35230090464862
BRITE-AUSTRIA           
1 39091U 13009F   22011.49553183  .00000043  00000+0  30046-4 0  9992
2 39091  98.4115 212.7852 0011068  31.2868 328.8974 14.35220741464917
SOMP                    
1 39134U 13015E   22011.29847554  .00004500  00000+0  18984-3 0  9991
2 39134  64.8618 215.8227 0027668 304.2380  55.6129 15.24314335482879
BEESAT-3                
1 39135U 13015F   22011.56100033  .00003365  00000+0  16002-3 0  9993
2 39135  64.8665 247.7513 0027417 314.2877  45.6002 15.20723554482230
BEESAT-2                
1 39136U 13015G   22011.38936652  .00002978  00000+0  14680-3 0  9997
2 39136  64.8748 255.6142 0011382 255.4795 104.5070 15.19967436482022
NEE-01 PEGASO           
1 39151U 13018B   22011.53226745  .00000420  00000+0  61656-4 0  9995
2 39151  97.9858 117.8927 0017843  47.4352 312.8363 14.80529994470457
ESTCUBE 1               
1 39161U 13021C   22011.48085073  .00000302  00000+0  55154-4 0  9996
2 39161  97.9259  92.7406 0008839 197.5746 162.5163 14.72631953466368
POPACS 1                
1 39268U 13055D   22011.39578680  .00009285  00000+0  24590-3 0  9990
2 39268  80.9990  47.8277 0588639 313.2797  42.0676 14.45995084430574
POPACS 2                
1 39269U 13055E   22011.50854220  .00004064  00000+0  11144-3 0  9992
2 39269  81.0130 100.0479 0660044  88.5187 279.1452 14.29983290427732
POPACS 3                
1 39270U 13055F   22011.61230598  .00006846  00000+0  20960-3 0  9998
2 39270  81.0153 130.1069 0698278 173.8453 187.1907 14.19741671406365
ZACUBE-1 (TSHEPISOSAT)  
1 39417U 13066B   22011.45813919  .00000548  00000+0  74057-4 0  9999
2 39417  97.6173 350.3050 0057834 197.9409 161.9765 14.81767264439873
WNISAT-1                
1 39423U 13066H   22011.46361951  .00000180  00000+0  45797-4 0  9992
2 39423  97.7728 264.3066 0173535 268.2344  89.8972 14.53315963431655
TRITON-1                
1 39427U 13066M   22011.56931393  .00000645  00000+0  10904-3 0  9997
2 39427  97.7999 314.3859 0113998  46.4927 314.5684 14.68454609435755
DELFI-N3XT              
1 39428U 13066N   22011.56102041  .00001052  00000+0  17114-3 0  9991
2 39428  97.8026 312.8903 0120411  59.5012 301.8018 14.68350674435509
GOMX-1                  
1 39430U 13066Q   22011.50843990  .00000280  00000+0  59179-4 0  9993
2 39430  97.8162 287.6470 0149936 178.9816 181.1715 14.59804278433394
CUBEBUG-2 (LO-74)       
1 39440U 13066AA  22011.45777151  .00000648  00000+0  95944-4 0  9991
2 39440  97.7057 335.8829 0078076 281.0704  78.1734 14.76485242437114
NEE-02 KRYSAOR          
1 39441U 13066AB  22011.40145069  .00000471  00000+0  73416-4 0  9998
2 39441  97.7162 333.0883 0079863 293.8781  65.4076 14.75357584436879
FUNCUBE-1 (AO-73)       
1 39444U 13066AE  22011.44706562  .00000657  00000+0  85487-4 0  9993
2 39444  97.6063 352.6860 0057073 187.0511 172.9906 14.82723930438257
UWE-3                   
1 39446U 13066AG  22011.47928334  .00000546  00000+0  78086-4 0  9995
2 39446  97.6648 342.5998 0068007 240.5805 118.8607 14.79026475437250
AEROCUBE 5A             
1 39465U 13072D   22011.45503304  .00018616  00000+0  12291-2 0  9998
2 39465 120.4936  90.7296 0244575 114.1502 248.5330 14.86298957126203
AEROCUBE 5B             
1 39466U 13072E   22011.41454879  .00028429  00000+0  14623-2 0  9991
2 39466 120.4651 162.2731 0198033 128.6884 233.2072 15.00929192127043
BRITE-CA1 (TORONTO)     
1 40020U 14033L   22011.46438470  .00000149  00000+0  33541-4 0  9992
2 40020  97.7564 178.6229 0088117  44.9317 315.8976 14.66832568404640
DUCHIFAT-1              
1 40021U 14033M   22011.57021056  .00001021  00000+0  10698-3 0  9990
2 40021  97.9955 319.2519 0012130 192.0642 168.0288 14.91793126411309
NANOSATC-BR1            
1 40024U 14033Q   22011.39722522  .00000943  00000+0  10163-3 0  9998
2 40024  97.9710 313.2219 0011394 198.9402 161.1393 14.90819003410573
QB50P1                  
1 40025U 14033R   22011.52585201  .00000723  00000+0  81387-4 0  9998
2 40025  97.9491 307.9297 0011470 208.2681 151.7915 14.89757406410396
QB50P2                  
1 40032U 14033Y   22011.56175321  .00000789  00000+0  89278-4 0  9997
2 40032  97.9294 303.8980 0010954 205.4387 154.6292 14.89244297410262
PERSEUS-M2              
1 40037U 14033AD  22011.51248116  .00000296  00000+0  39344-4 0  9992
2 40037  97.8950 294.6797 0013158 229.5027 130.5043 14.86805056409803
PERSEUS-M1              
1 40039U 14033AF  22011.53383548  .00000280  00000+0  37906-4 0  9990
2 40039  97.8870 292.7334 0013035 228.1631 131.8472 14.86422885409694
POLYITAN-1              
1 40042U 14033AJ  22011.53372152  .00000923  00000+0  10245-3 0  9993
2 40042  97.9590 308.9420 0013813 200.3759 159.6908 14.89631699410288
TIGRISAT                
1 40043U 14033AK  22011.50410822  .00000375  00000+0  62021-4 0  9999
2 40043  97.6571 209.2229 0058471 305.6561  53.9212 14.74683008406491
AEROCUBE 6A             
1 40045U 14033AM  22011.48347680  .00000528  00000+0  82043-4 0  9995
2 40045  97.6746 217.3808 0056236 294.3889  65.1459 14.76024494406627
AEROCUBE 6B             
1 40046U 14033AN  22011.54917047  .00000781  00000+0  11765-3 0  9996
2 40046  97.6647 216.0410 0055293 292.6839  66.8531 14.76125210406639
UKUBE-1                 
1 40074U 14037F   22011.36286016  .00000606  00000+0  78398-4 0  9998
2 40074  98.4021 243.6657 0005536  75.2934 284.8893 14.84820382406757
BRITE-PL2 (HEWELIUSZ)   
1 40119U 14049B   22011.54164198  .00000277  00000+0  38990-4 0  9995
2 40119  97.8862 108.8529 0018156  39.5149 320.7386 14.84796408400725
FIREBIRD 4              
1 40378U 15003C   22011.46470568  .00009366  00000+0  31850-3 0  9990
2 40378  99.1133 202.1264 0111114 194.2439 165.5654 15.24958834384464
GRIFEX                  
1 40379U 15003D   22011.45553821  .00006135  00000+0  23821-3 0  9994
2 40379  99.1148 189.5691 0123031 231.9861 127.0211 15.19794996383756
CP10 (EXOCUBE)          
1 40380U 15003E   22011.45673986  .00004429  00000+0  18425-3 0  9999
2 40380  99.1180 183.1137 0129205 253.6695 105.0293 15.17177969383337
TIANWANG 1A (TW-1A)     
1 40928U 15051D   22011.55963861  .00010745  00000+0  19501-3 0  9999
2 40928  97.0612  36.7189 0006534 244.2453 217.2847 15.49730700353879
EXACTVIEW 9             
1 40936U 15052G   22010.97458441  .00000973  00000+0  46531-4 0  9993
2 40936   6.0016 217.2091 0009855  86.4868 273.6387 14.76835910339898
AEROCUBE 5C             
1 40965U 15058B   22011.25256608  .00000539  00000+0  74756-4 0  9992
2 40965  64.7749 208.1967 0208033 248.4512 109.4308 14.75023681125772
AEROCUBE 7              
1 40966U 15058C   22011.50568722  .00000725  00000+0  93514-4 0  9994
2 40966  64.7749 204.9815 0206531 248.0414 109.8628 14.75439081125805
ATHENOXAT 1             
1 41168U 15077C   22010.80271891  .00004164  00000+0  16826-3 0  9991
2 41168  14.9832 175.1500 0010248 190.1929 208.6027 15.17177720336302
GALASSIA                
1 41170U 15077E   22010.75967113  .00004761  00000+0  19693-3 0  9995
2 41170  14.9876 165.8385 0011469 218.6304 141.3197 15.17224188336211
VELOX-II                
1 41171U 15077F   22011.24453757  .00003462  00000+0  15054-3 0  9999
2 41171  14.9900 228.1498 0008291  78.3229 281.8022 15.13490523335742
HORYU-4                 
1 41340U 16012D   22011.41721092  .00001239  00000+0  84967-4 0  9996
2 41340  31.0045 281.1600 0013385  79.0602 281.1540 15.02315112324088
